NORAD_CAT_ID,OBJECT_NAME,OBJECT_TYPE,EPOCH,MEAN_MOTION,ECCENTRICITY,INCLINATION,RA_OF_ASC_NODE,ARG_OF_PERICENTER,MEAN_ANOMALY,BSTAR,MEAN_MOTION_DOT,MEAN_MOTION_DDOT,TLE_LINE0,TLE_LINE1,TLE_LINE2,SEMIMAJOR_AXIS,PERIOD,APOGEE,PERIGEE,DECAYED
53918.0,STARLINK-5012,PAYLOAD,2024-07-10 04:26:34,15.08834226,0.0001383,53.2155,161.2187,99.2059,260.909,-6.8884e-05,-1.384e-05,0.0,0 STARLINK-5012,1 53918U 22119AJ  24192.18512358 -.00001384  00000-0 -68884-4 0  9998,2 53918  53.2155 161.2187 0001383  99.2059 260.9090 15.08834226 99692,6917.898,95.438,540.72,538.806,0.0
53918.0,STARLINK-5012,PAYLOAD,2024-07-10 07:37:20,15.0883544,0.0001507,53.2165,160.6221,95.3418,264.7746,-4.6686e-05,-1.031e-05,0.0,0 STARLINK-5012,1 53918U 22119AJ  24192.31760185 -.00001031  00000-0 -46686-4 0  9991,2 53918  53.2165 160.6221 0001507  95.3418 264.7746 15.08835440100130,6917.894,95.438,540.802,538.717,0.0
53918.0,STARLINK-5012,PAYLOAD,2024-07-11 04:17:20,15.08849801,0.0001418,53.2161,156.7564,102.3726,257.7425,3.0651e-05,2e-06,0.0,0 STARLINK-5012,1 53918U 22119AJ  24193.17871038  .00000200  00000-0  30651-4 0  9996,2 53918  53.2161 156.7564 0001418 102.3726 257.7425 15.08849801 99841,6917.85,95.437,540.696,538.734,0.0
53918.0,STARLINK-5012,PAYLOAD,2024-07-12 04:08:08,15.08837758,0.0001454,53.2169,152.3029,87.5549,272.5609,4.0373e-05,3.55e-06,0.0,0 STARLINK-5012,1 53918U 22119AJ  24194.17232024  .00000355  00000-0  40373-4 0  9996,2 53918  53.2169 152.3029 0001454  87.5549 272.5609 15.08837758 99997,6917.887,95.438,540.758,538.746,0.0
53918.0,STARLINK-5012,PAYLOAD,2024-07-12 13:40:27,15.08835504,0.0001455,53.2169,150.515,84.6681,275.4477,5.1669e-05,5.34e-06,0.0,0 STARLINK-5012,1 53918U 22119AJ  24194.56976195  .00000534  00000-0  51669-4 0  9992,2 53918  53.2169 150.5150 0001455  84.6681 275.4477 15.08835504100476,6917.894,95.438,540.766,538.753,0.0
53918.0,STARLINK-5012,PAYLOAD,2024-07-13 03:58:55,15.08847419,0.000136,53.2164,147.8394,80.4632,279.6514,9.0464e-06,-1.44e-06,0.0,0 STARLINK-5012,1 53918U 22119AJ  24195.16591560 -.00000144  00000-0  90464-5 0  9993,2 53918  53.2164 147.8394 0001360  80.4632 279.6514 15.08847419100145,6917.858,95.437,540.664,538.782,0.0
53918.0,STARLINK-5012,PAYLOAD,2024-07-13 13:31:13,15.08846722,0.0001309,53.2161,146.0554,80.2008,279.9132,-2.0899e-05,-6.21e-06,0.0,0 STARLINK-5012,1 53918U 22119AJ  24195.56335568 -.00000621  00000-0 -20899-4 0  9996,2 53918  53.2161 146.0554 0001309  80.2008 279.9132 15.08846722100627,6917.86,95.437,540.63,538.819,0.0
53918.0,STARLINK-5012,PAYLOAD,2024-07-13 21:28:10,15.08830646,0.0001436,53.217,144.5698,87.5997,272.5159,-5.3299e-06,-3.73e-06,0.0,0 STARLINK-5012,1 53918U 22119AJ  24195.89456721 -.00000373  00000-0 -53299-5 0  9992,2 53918  53.2170 144.5698 0001436  87.5997 272.5159 15.08830646100678,6917.909,95.438,540.767,538.781,0.0
53918.0,STARLINK-5012,PAYLOAD,2024-07-14 03:49:42,15.08834729,0.0001367,53.2166,143.3814,89.9895,270.1254,2.862e-05,1.68e-06,0.0,0 STARLINK-5012,1 53918U 22119AJ  24196.15952433  .00000168  00000-0  28620-4 0  9992,2 53918  53.2166 143.3814 0001367  89.9895 270.1254 15.08834729100290,6917.897,95.438,540.707,538.816,0.0
53918.0,STARLINK-5012,PAYLOAD,2024-07-14 13:22:01,15.08837614,0.0001381,53.2168,141.5973,89.5091,270.606,4.1869e-05,3.78e-06,0.0,0 STARLINK-5012,1 53918U 22119AJ  24196.55696310  .00000378  00000-0  41869-4 0  9998,2 53918  53.2168 141.5973 0001381  89.5091 270.6060 15.08837614100777,6917.888,95.438,540.708,538.797,0.0
53918.0,STARLINK-5012,PAYLOAD,2024-07-15 03:40:29,15.08848493,0.0001397,53.2168,138.9223,96.164,263.9511,8.6295e-05,1.086e-05,0.0,0 STARLINK-5012,1 53918U 22119AJ  24197.15311520  .00001086  00000-0  86295-4 0  9991,2 53918  53.2168 138.9223 0001397  96.1640 263.9511 15.08848493100443,6917.854,95.437,540.686,538.753,0.0
53918.0,STARLINK-5012,PAYLOAD,2024-07-15 05:15:52,15.08851926,0.0001453,53.2172,138.6252,97.7831,262.3326,0.00011528,1.548e-05,0.0,0 STARLINK-5012,1 53918U 22119AJ  24197.21935213  .00001548  00000-0  11528-3 0  9998,2 53918  53.2172 138.6252 0001453  97.7831 262.3326 15.08851926100878,6917.844,95.437,540.714,538.704,0.0
53918.0,STARLINK-5012,PAYLOAD,2024-07-16 05:06:39,15.08841064,0.0001747,53.2156,134.1607,94.1847,265.9345,5.2479e-05,5.47e-06,0.0,0 STARLINK-5012,1 53918U 22119AJ  24198.21296270  .00000547  00000-0  52479-4 0  9991,2 53918  53.2156 134.1607 0001747  94.1847 265.9345 15.08841064100602,6917.877,95.437,540.951,538.534,0.0
53918.0,STARLINK-5012,PAYLOAD,2024-07-17 04:57:25,15.0886105,0.0001587,53.2175,129.696,101.1708,258.9463,0.00010799,1.432e-05,0.0,0 STARLINK-5012,1 53918U 22119AJ  24199.20654470  .00001432  00000-0  10799-3 0  9993,2 53918  53.2175 129.6960 0001587 101.1708 258.9463 15.08861050100757,6917.816,95.436,540.779,538.583,0.0
53918.0,STARLINK-5012,PAYLOAD,2024-07-17 12:54:22,15.08839206,0.0001598,53.2177,128.2109,96.1074,264.01,-5.9576e-05,-1.236e-05,0.0,0 STARLINK-5012,1 53918U 22119AJ  24199.53776355 -.00001236  00000-0 -59576-4 0  9997,2 53918  53.2177 128.2109 0001598  96.1074 264.0100 15.08839206101227,6917.883,95.438,540.853,538.642,0.0
53918.0,STARLINK-5012,PAYLOAD,2024-07-18 01:37:28,15.08837998,0.0001516,53.2174,125.832,97.5493,262.5671,-4.3351e-05,-9.78e-06,0.0,0 STARLINK-5012,1 53918U 22119AJ  24200.06768832 -.00000978  00000-0 -43351-4 0  9995,2 53918  53.2174 125.8320 0001516  97.5493 262.5671 15.08837998101303,6917.887,95.438,540.8,538.703,0.0
53918.0,STARLINK-5012,PAYLOAD,2024-07-18 22:17:28,15.08842346,0.000165,53.2169,121.9646,111.1552,248.9617,1.7472e-06,-2.6e-06,0.0,0 STARLINK-5012,1 53918U 22119AJ  24200.92880572 -.00000260  00000-0  17472-5 0  9995,2 53918  53.2169 121.9646 0001650 111.1552 248.9617 15.08842346101438,6917.873,95.437,540.88,538.597,0.0
53918.0,STARLINK-5012,PAYLOAD,2024-07-19 01:28:14,15.0884454,0.0001586,53.2166,121.3713,106.6316,253.485,-7.6656e-06,-4.1e-06,0.0,0 STARLINK-5012,1 53918U 22119AJ  24201.06128419 -.00000410  00000-0 -76656-5 0  9993,2 53918  53.2166 121.3713 0001586 106.6316 253.4850 15.08844540101033,6917.867,95.437,540.829,538.634,0.0
53918.0,STARLINK-5012,PAYLOAD,2024-07-19 22:08:16,15.08833356,0.0001545,53.2164,117.5074,95.5815,264.5353,0.00015336,2.153e-05,0.0,0 STARLINK-5012,1 53918U 22119AJ  24201.92241325  .00002153  00000-0  15336-3 0  9990,2 53918  53.2164 117.5074 0001545  95.5815 264.5353 15.08833356101587,6917.901,95.438,540.835,538.697,0.0
53918.0,STARLINK-5012,PAYLOAD,2024-07-20 04:29:48,15.08843038,0.0001306,53.2156,116.3182,84.6126,275.5016,0.000223,3.263e-05,0.0,0 STARLINK-5012,1 53918U 22119AJ  24202.18736935  .00003263  00000-0  22300-3 0  9997,2 53918  53.2156 116.3182 0001306  84.6126 275.5016 15.08843038101209,6917.871,95.437,540.64,538.833,0.0
53918.0,STARLINK-5012,PAYLOAD,2024-07-20 10:51:21,15.08837677,0.000128,53.2153,115.1265,73.5132,286.6001,0.0001195,1.614e-05,0.0,0 STARLINK-5012,1 53918U 22119AJ  24202.45233288  .00001614  00000-0  11950-3 0  9997,2 53918  53.2153 115.1265 0001280  73.5132 286.6001 15.08837677101669,6917.887,95.438,540.638,538.867,0.0
53918.0,STARLINK-5012,PAYLOAD,2024-07-20 21:59:03,15.08829872,0.0001368,53.2157,113.0458,59.3027,300.8099,0.00016256,2.299e-05,0.0,0 STARLINK-5012,1 53918U 22119AJ  24202.91601817  .00002299  00000-0  16256-3 0  9999,2 53918  53.2157 113.0458 0001368  59.3027 300.8099 15.08829872101738,6917.911,95.438,540.723,538.83,0.0
53918.0,STARLINK-5012,PAYLOAD,2024-07-21 01:09:49,15.08842502,0.0001723,53.2167,112.4607,119.3627,240.7538,0.00011732,1.58e-05,0.0,0 STARLINK-5012,1 53918U 22119AJ  24203.04849085  .00001580  00000-0  11732-3 0  9991,2 53918  53.2167 112.4607 0001723 119.3627 240.7538 15.08842502101753,6917.873,95.437,540.93,538.546,0.0
53918.0,STARLINK-5012,PAYLOAD,2024-07-21 21:49:50,15.08839961,0.0001524,53.2173,108.5949,116.472,243.6429,5.8456e-05,6.42e-06,0.0,0 STARLINK-5012,1 53918U 22119AJ  24203.90961613  .00000642  00000-0  58456-4 0  9991,2 53918  53.2173 108.5949 0001524 116.4720 243.6429 15.08839961101886,6917.881,95.438,540.8,538.691,0.0
53918.0,STARLINK-5012,PAYLOAD,2024-07-22 01:00:36,15.08846647,0.0001482,53.2162,107.9997,120.5903,239.5235,6.7548e-05,7.87e-06,0.0,0 STARLINK-5012,1 53918U 22119AJ  24204.04209136  .00000787  00000-0  67548-4 0  9994,2 53918  53.2162 107.9997 0001482 120.5903 239.5235 15.08846647101486,6917.86,95.437,540.75,538.7,0.0
53918.0,STARLINK-5012,PAYLOAD,2024-07-22 21:40:37,15.08843074,0.0001306,53.2157,104.132,117.9757,242.1368,0.00011173,1.491e-05,0.0,0 STARLINK-5012,1 53918U 22119AJ  24204.90321239  .00001491  00000-0  11173-3 0  9993,2 53918  53.2157 104.1320 0001306 117.9757 242.1368 15.08843074102031,6917.871,95.437,540.639,538.833,0.0
53918.0,STARLINK-5012,PAYLOAD,2024-07-23 10:23:42,15.08846076,0.0001155,53.2165,101.7476,94.1228,265.9896,-4.6562e-05,-1.029e-05,0.0,0 STARLINK-5012,1 53918U 22119AJ  24205.43312651 -.00001029  00000-0 -46562-4 0  9990,2 53918  53.2165 101.7476 0001155  94.1228 265.9896 15.08846076101691,6917.862,95.437,540.526,538.928,0.0
53918.0,STARLINK-5012,PAYLOAD,2024-07-24 02:17:34,15.08836762,0.0001431,53.2166,98.7693,77.8521,282.2631,3.2366e-05,2.27e-06,0.0,0 STARLINK-5012,1 53918U 22119AJ  24206.09554125  .00000227  00000-0  32366-4 0  9991,2 53918  53.2166  98.7693 0001431  77.8521 282.2631 15.08836762101790,6917.89,95.438,540.745,538.765,0.0
53918.0,STARLINK-5012,PAYLOAD,2024-07-24 22:57:34,15.08852212,0.0001233,53.2166,94.905,98.0959,262.0174,9.9403e-06,-1.3e-06,0.0,0 STARLINK-5012,1 53918U 22119AJ  24206.95665050 -.00000130  00000-0  99403-5 0  9996,2 53918  53.2166  94.9050 0001233  98.0959 262.0174 15.08852212101926,6917.843,95.437,540.561,538.855,0.0
53918.0,STARLINK-5012,PAYLOAD,2024-07-25 16:26:50,15.08832145,0.0001299,53.2157,91.6369,101.4327,258.6811,0.00014879,2.08e-05,0.0,0 STARLINK-5012,1 53918U 22119AJ  24207.68530162  .00002080  00000-0  14879-3 0  9999,2 53918  53.2157  91.6369 0001299 101.4327 258.6811 15.08832145102038,6917.904,95.438,540.668,538.871,0.0
